[
    {
        "Altitude(m)": 612502.2277567056,
        "Argument of Periapsis(deg)": 0.0,
        "Eccentricity": 0.0,
        "Inclination(deg)": 60.0,
        "Latitude(deg)": -28.136080399899335,
        "Longitude(deg)": -7.851698190996726,
        "Mean Anomaly(deg)": -32.727299999999985,
        "RAAN(deg)": 110.00000000000001,
        "Satellite Name": "Test1 504",
        "Satellite Number": 504,
        "Semi-Major Axis(m)": 6980739.136638005,
        "Time(s)": 0
    },
    {
        "Altitude(m)": 612308.675055686,
        "Argument of Periapsis(deg)": 0.00010418945913296404,
        "Eccentricity": 0.0,
        "Inclination(deg)": 60.0,
        "Latitude(deg)": -27.623135101888636,
        "Longitude(deg)": -7.498224823054111,
        "Mean Anomaly(deg)": -32.107193854538146,
        "RAAN(deg)": 109.99957995086025,
        "Satellite Name": "Test1 504",
        "Satellite Number": 504,
        "Semi-Major Axis(m)": 6980739.136638005,
        "Time(s)": 10
    },
    {
        "Altitude(m)": 612116.0912544756,
        "Argument of Periapsis(deg)": 0.0002083789182659281,
        "Eccentricity": 0.0,
        "Inclination(deg)": 60.0,
        "Latitude(deg)": -27.109020944519582,
        "Longitude(deg)": -7.148402624567107,
        "Mean Anomaly(deg)": -31.487087709076356,
        "RAAN(deg)": 109.99915990172053,
        "Satellite Name": "Test1 504",
        "Satellite Number": 504,
        "Semi-Major Axis(m)": 6980739.136638005,
        "Time(s)": 20
    },
    {
        "Altitude(m)": 611924.5459399278,
        "Argument of Periapsis(deg)": 0.00031256837739889213,
        "Eccentricity": 0.0,
        "Inclination(deg)": 60.0,
        "Latitude(deg)": -26.593772243172808,
        "Longitude(deg)": -6.802127178673153,
        "Mean Anomaly(deg)": -30.866981563614516,
        "RAAN(deg)": 109.99873985258077,
        "Satellite Name": "Test1 504",
        "Satellite Number": 504,
        "Semi-Major Axis(m)": 6980739.136638005,
        "Time(s)": 30
    },
    {
        "Altitude(m)": 611734.1080922869,
        "Argument of Periapsis(deg)": 0.0004167578365318562,
        "Eccentricity": 0.0,
        "Inclination(deg)": 60.0,
        "Latitude(deg)": -26.07742246388153,
        "Longitude(deg)": -6.459295786126326,
        "Mean Anomaly(deg)": -30.246875418152726,
        "RAAN(deg)": 109.99831980344105,
        "Satellite Name": "Test1 504",
        "Satellite Number": 504,
        "Semi-Major Axis(m)": 6980739.136638005,
        "Time(s)": 40
    },
    {
        "Altitude(m)": 611544.8460546786,
        "Argument of Periapsis(deg)": 0.0005209472956648203,
        "Eccentricity": 0.0,
        "Inclination(deg)": 60.0,
        "Latitude(deg)": -25.560004255735457,
        "Longitude(deg)": -6.119808410037032,
        "Mean Anomaly(deg)": -29.626769272690833,
        "RAAN(deg)": 109.9978997543013,
        "Satellite Name": "Test1 504",
        "Satellite Number": 504,
        "Semi-Major Axis(m)": 6980739.136638005,
        "Time(s)": 50
    },
    {
        "Altitude(m)": 611356.8275028794,
        "Argument of Periapsis(deg)": 0.0006251367547977843,
        "Eccentricity": 0.0,
        "Inclination(deg)": 60.0,
        "Latitude(deg)": -25.04154948217882,
        "Longitude(deg)": -5.783567108492024,
        "Mean Anomaly(deg)": -29.006663127229043,
        "RAAN(deg)": 109.99747970516154,
        "Satellite Name": "Test1 504",
        "Satellite Number": 504,
        "Semi-Major Axis(m)": 6980739.136638005,
        "Time(s)": 60
    },
    {
        "Altitude(m)": 611170.1194153936,
        "Argument of Periapsis(deg)": 0.0007293262139307483,
        "Eccentricity": 0.0,
        "Inclination(deg)": 60.0,
        "Latitude(deg)": -24.522089251241304,
        "Longitude(deg)": -5.450475467986797,
        "Mean Anomaly(deg)": -28.386556981767203,
        "RAAN(deg)": 109.99705965602182,
        "Satellite Name": "Test1 504",
        "Satellite Number": 504,
        "Semi-Major Axis(m)": 6980739.136638005,
        "Time(s)": 70
    },
    {
        "Altitude(m)": 610984.7880438323,
        "Argument of Periapsis(deg)": 0.0008335156730637124,
        "Eccentricity": 0.0,
        "Inclination(deg)": 60.0,
        "Latitude(deg)": -24.001653944744216,
        "Longitude(deg)": -5.120439550595992,
        "Mean Anomaly(deg)": -27.766450836305363,
        "RAAN(deg)": 109.99663960688206,
        "Satellite Name": "Test1 504",
        "Satellite Number": 504,
        "Semi-Major Axis(m)": 6980739.136638005,
        "Time(s)": 80
    },
    {
        "Altitude(m)": 610800.898883627,
        "Argument of Periapsis(deg)": 0.0009377051321966765,
        "Eccentricity": 0.0,
        "Inclination(deg)": 60.0,
        "Latitude(deg)": -23.480273246511427,
        "Longitude(deg)": -4.793367329175555,
        "Mean Anomaly(deg)": -27.146344690843524,
        "RAAN(deg)": 109.99621955774234,
        "Satellite Name": "Test1 504",
        "Satellite Number": 504,
        "Semi-Major Axis(m)": 6980739.136638005,
        "Time(s)": 90
    },
    {
        "Altitude(m)": 610618.5166451068,
        "Argument of Periapsis(deg)": 0.0010418945913296407,
        "Eccentricity": 0.0,
        "Inclination(deg)": 60.0,
        "Latitude(deg)": -22.957976169624697,
        "Longitude(deg)": -4.469168123502692,
        "Mean Anomaly(deg)": -26.52623854538167,
        "RAAN(deg)": 109.99579950860257,
        "Satellite Name": "Test1 504",
        "Satellite Number": 504,
        "Semi-Major Axis(m)": 6980739.136638005,
        "Time(s)": 100
    },
    {
        "Altitude(m)": 610437.7052249071,
        "Argument of Periapsis(deg)": 0.0011460840504626045,
        "Eccentricity": 0.0,
        "Inclination(deg)": 60.0,
        "Latitude(deg)": -22.43479108276139,
        "Longitude(deg)": -4.147753550254662,
        "Mean Anomaly(deg)": -25.906132399919883,
        "RAAN(deg)": 109.99537945946282,
        "Satellite Name": "Test1 504",
        "Satellite Number": 504,
        "Semi-Major Axis(m)": 6980739.136638005,
        "Time(s)": 110
    },
    {
        "Altitude(m)": 610258.5276777738,
        "Argument of Periapsis(deg)": 0.0012502735095955685,
        "Eccentricity": 0.0,
        "Inclination(deg)": 60.0,
        "Latitude(deg)": -21.910745735643005,
        "Longitude(deg)": -3.8290369610970707,
        "Mean Anomaly(deg)": -25.286026254458044,
        "RAAN(deg)": 109.99495941032308,
        "Satellite Name": "Test1 504",
        "Satellite Number": 504,
        "Semi-Major Axis(m)": 6980739.136638005,
        "Time(s)": 120
    },
    {
        "Altitude(m)": 610081.0461887502,
        "Argument of Periapsis(deg)": 0.0013544629687285324,
        "Eccentricity": 0.0,
        "Inclination(deg)": 60.0,
        "Latitude(deg)": -21.38586728363183,
        "Longitude(deg)": -3.5129328817700287,
        "Mean Anomaly(deg)": -24.665920108996254,
        "RAAN(deg)": 109.99453936118334,
        "Satellite Name": "Test1 504",
        "Satellite Number": 504,
        "Semi-Major Axis(m)": 6980739.136638005,
        "Time(s)": 130
    },
    {
        "Altitude(m)": 609905.3220457566,
        "Argument of Periapsis(deg)": 0.0014586524278614966,
        "Eccentricity": 0.0,
        "Inclination(deg)": 60.0,
        "Latitude(deg)": -20.860182311510126,
        "Longitude(deg)": -3.199357965052248,
        "Mean Anomaly(deg)": -24.045813963534357,
        "RAAN(deg)": 109.9941193120436,
        "Satellite Name": "Test1 504",
        "Satellite Number": 504,
        "Semi-Major Axis(m)": 6980739.136638005,
        "Time(s)": 140
    },
    {
        "Altitude(m)": 609731.4156126146,
        "Argument of Periapsis(deg)": 0.0015628418869944607,
        "Eccentricity": 0.0,
        "Inclination(deg)": 60.0,
        "Latitude(deg)": -20.33371685646985,
        "Longitude(deg)": -2.888230431861081,
        "Mean Anomaly(deg)": -23.425707818072574,
        "RAAN(deg)": 109.99369926290386,
        "Satellite Name": "Test1 504",
        "Satellite Number": 504,
        "Semi-Major Axis(m)": 6980739.136638005,
        "Time(s)": 150
    },
    {
        "Altitude(m)": 609559.3863024671,
        "Argument of Periapsis(deg)": 0.0016670313461274247,
        "Eccentricity": 0.0,
        "Inclination(deg)": 60.0,
        "Latitude(deg)": -19.80649643034482,
        "Longitude(deg)": -2.5794695133592085,
        "Mean Anomaly(deg)": -22.805601672610734,
        "RAAN(deg)": 109.99327921376411,
        "Satellite Name": "Test1 504",
        "Satellite Number": 504,
        "Semi-Major Axis(m)": 6980739.136638005,
        "Time(s)": 160
    },
    {
        "Altitude(m)": 609389.2925516817,
        "Argument of Periapsis(deg)": 0.0017712208052603888,
        "Eccentricity": 0.0,
        "Inclination(deg)": 60.0,
        "Latitude(deg)": -19.278546041120457,
        "Longitude(deg)": -2.2729964069385686,
        "Mean Anomaly(deg)": -22.18549552714889,
        "RAAN(deg)": 109.99285916462438,
        "Satellite Name": "Test1 504",
        "Satellite Number": 504,
        "Semi-Major Axis(m)": 6980739.136638005,
        "Time(s)": 170
    },
    {
        "Altitude(m)": 609221.1917941779,
        "Argument of Periapsis(deg)": 0.001875410264393353,
        "Eccentricity": 0.0,
        "Inclination(deg)": 60.0,
        "Latitude(deg)": -18.749890213743726,
        "Longitude(deg)": -1.9687337203251822,
        "Mean Anomaly(deg)": -21.56538938168705,
        "RAAN(deg)": 109.99243911548463,
        "Satellite Name": "Test1 504",
        "Satellite Number": 504,
        "Semi-Major Axis(m)": 6980739.136638005,
        "Time(s)": 180
    },
    {
        "Altitude(m)": 609055.1404362448,
        "Argument of Periapsis(deg)": 0.0019795997235263173,
        "Eccentricity": 0.0,
        "Inclination(deg)": 60.0,
        "Latitude(deg)": -18.220553010264958,
        "Longitude(deg)": -1.6666049166676282,
        "Mean Anomaly(deg)": -20.94528323622526,
        "RAAN(deg)": 109.9920190663449,
        "Satellite Name": "Test1 504",
        "Satellite Number": 504,
        "Semi-Major Axis(m)": 6980739.136638005,
        "Time(s)": 190
    }
]